[{"OBJECT_NAME":"IRIDE-MS2-HEO-9","OBJECT_ID":"2025-135BK","EPOCH":"2026-03-09T21:52:15.799008","MEAN_MOTION":14.94083208,"ECCENTRICITY":0.00030266,"INCLINATION":97.762,"RA_OF_ASC_NODE":184.6607,"ARG_OF_PERICENTER":333.8916,"MEAN_ANOMALY":26.2151,"EPHEMERIS_TYPE":0,"CLASSIFICATION_TYPE":"U","NORAD_CAT_ID":64585,"ELEMENT_SET_NO":999,"REV_AT_EPOCH":3908,"BSTAR":0.00032181213,"MEAN_MOTION_DOT":3.381e-5,"MEAN_MOTION_DDOT":0},{"OBJECT_NAME":"PEGASUS DEB","OBJECT_ID":"1994-029BC","EPOCH":"2026-03-09T22:00:19.479168","MEAN_MOTION":15.02669201,"ECCENTRICITY":0.00619411,"INCLINATION":81.9229,"RA_OF_ASC_NODE":10.1044,"ARG_OF_PERICENTER":202.7728,"MEAN_ANOMALY":222.9696,"EPHEMERIS_TYPE":0,"CLASSIFICATION_TYPE":"U","NORAD_CAT_ID":24007,"ELEMENT_SET_NO":999,"REV_AT_EPOCH":60998,"BSTAR":0.00034526552,"MEAN_MOTION_DOT":4.826e-5,"MEAN_MOTION_DDOT":0}]
